{"type": "FeatureCollection", "features": [ {"type": "Feature", "properties": {"norad_id": 35602, "name": "COSMOS 2251 DEB", "group": "cosmos-2251-debris", "lat": 68.13039161268729, "lon": -147.10598876831162, "alt_km": 508.7272661133338, "timestamp": "2025-12-19T16:54:44.659651+00:00", "meta": {"OBJECT_NAME": "COSMOS 2251 DEB", "OBJECT_ID": "1993-036AMV", "EPOCH": "2025-12-18T05:07:36.279840", "MEAN_MOTION": 15.35279766, "ECCENTRICITY": 0.00891938, "INCLINATION": 73.9927, "RA_OF_ASC_NODE": 170.4375, "ARG_OF_PERICENTER": 234.9985, "MEAN_ANOMALY": 242.6614, "EPHEMERIS_TYPE": 0, "CLASSIFICATION_TYPE": "U", "NORAD_CAT_ID": 35602, "ELEMENT_SET_NO": 999, "REV_AT_EPOCH": 90175, "BSTAR": 0.00048312432, "MEAN_MOTION_DOT": 0.00018873, "MEAN_MOTION_DDOT": 0}, "tle": {"line1": "1 35602U 93036AMV 25352.21361435  .00018873  00000+0  48312-3 0  9996", "line2": "2 35602  73.9927 170.4375 0089193 234.9985 242.6614 15.35279766901750"}}, "geometry": {"type": "Point", "coordinates": [-147.10598876831162, 68.13039161268729]}}, {"type": "Feature", "properties": {"norad_id": 35605, "name": "COSMOS 2251 DEB", "group": "cosmos-2251-debris", "lat": 45.51596491585795, "lon": 124.38360972133412, "alt_km": 458.685571672293, "timestamp": "2025-12-19T16:54:44.659662+00:00", "meta": {"OBJECT_NAME": "COSMOS 2251 DEB", "OBJECT_ID": "1993-036AMY", "EPOCH": "2025-12-16T05:30:02.725344", "MEAN_MOTION": 15.35586787, "ECCENTRICITY": 0.00242235, "INCLINATION": 73.8701, "RA_OF_ASC_NODE": 329.0606, "ARG_OF_PERICENTER": 257.5437, "MEAN_ANOMALY": 102.3057, "EPHEMERIS_TYPE": 0, "CLASSIFICATION_TYPE": "U", "NORAD_CAT_ID": 35605, "ELEMENT_SET_NO": 999, "REV_AT_EPOCH": 66025, "BSTAR": 0.0050760725, "MEAN_MOTION_DOT": 0.00181517, "MEAN_MOTION_DDOT": 0}, "tle": {"line1": "1 35605U 93036AMY 25350.22919821  .00181517  00000+0  50761-2 0  9992", "line2": "2 35605  73.8701 329.0606 0024223 257.5437 102.3057 15.35586787660251"}}, "geometry": {"type": "Point", "coordinates": [124.38360972133412, 45.51596491585795]}}, {"type": "Feature", "properties": {"norad_id": 35606, "name": "COSMOS 2251 DEB", "group": "cosmos-2251-debris", "lat": -15.862328931371708, "lon": -5.038099782425097, "alt_km": 1361.0940444860362, "timestamp": "2025-12-19T16:54:44.659672+00:00", "meta": {"OBJECT_NAME": "COSMOS 2251 DEB", "OBJECT_ID": "1993-036AMZ", "EPOCH": "2025-12-17T18:27:28.365120", "MEAN_MOTION": 13.41216697, "ECCENTRICITY": 0.04572108, "INCLINATION": 73.8105, "RA_OF_ASC_NODE": 2.7804, "ARG_OF_PERICENTER": 207.7717, "MEAN_ANOMALY": 149.8287, "EPHEMERIS_TYPE": 0, "CLASSIFICATION_TYPE": "U", "NORAD_CAT_ID": 35606, "ELEMENT_SET_NO": 999, "REV_AT_EPOCH": 61107, "BSTAR": 0.0003718916, "MEAN_MOTION_DOT": 3.59e-06, "MEAN_MOTION_DDOT": 0}, "tle": {"line1": "1 35606U 93036AMZ 25351.76907830  .00000359  00000+0  37189-3 0  9994", "line2": "2 35606  73.8105   2.7804 0457210 207.7717 149.8287 13.41216697611071"}}, "geometry": {"type": "Point", "coordinates": [-5.038099782425097, -15.862328931371708]}}, {"type": "Feature", "properties": {"norad_id": 35611, "name": "COSMOS 2251 DEB", "group": "cosmos-2251-debris", "lat": 15.167126758344253, "lon": -18.733661865031987, "alt_km": 647.7008504017094, "timestamp": "2025-12-19T16:54:44.659682+00:00", "meta": {"OBJECT_NAME": "COSMOS 2251 DEB", "OBJECT_ID": "1993-036ANE", "EPOCH": "2025-12-17T21:47:16.724544", "MEAN_MOTION": 14.72986484, "ECCENTRICITY": 0.00214069, "INCLINATION": 74.0185, "RA_OF_ASC_NODE": 169.2246, "ARG_OF_PERICENTER": 241.9604, "MEAN_ANOMALY": 117.9404, "EPHEMERIS_TYPE": 0, "CLASSIFICATION_TYPE": "U", "NORAD_CAT_ID": 35611, "ELEMENT_SET_NO": 999, "REV_AT_EPOCH": 87366, "BSTAR": 0.0018150701, "MEAN_MOTION_DOT": 0.00011685, "MEAN_MOTION_DDOT": 0}, "tle": {"line1": "1 35611U 93036ANE 25351.90783246  .00011685  00000+0  18151-2 0  9990", "line2": "2 35611  74.0185 169.2246 0021406 241.9604 117.9404 14.72986484873661"}}, "geometry": {"type": "Point", "coordinates": [-18.733661865031987, 15.167126758344253]}}, {"type": "Feature", "properties": {"norad_id": 35614, "name": "COSMOS 2251 DEB", "group": "cosmos-2251-debris", "lat": 41.926306513263114, "lon": 118.98222894306228, "alt_km": 620.9767969767317, "timestamp": "2025-12-19T16:54:44.659693+00:00", "meta": {"OBJECT_NAME": "COSMOS 2251 DEB", "OBJECT_ID": "1993-036ANH", "EPOCH": "2025-12-18T14:06:30.738528", "MEAN_MOTION": 14.67062492, "ECCENTRICITY": 0.00753345, "INCLINATION": 73.9588, "RA_OF_ASC_NODE": 316.1215, "ARG_OF_PERICENTER": 169.1076, "MEAN_ANOMALY": 191.1747, "EPHEMERIS_TYPE": 0, "CLASSIFICATION_TYPE": "U", "NORAD_CAT_ID": 35614, "ELEMENT_SET_NO": 999, "REV_AT_EPOCH": 87815, "BSTAR": 0.00056217357, "MEAN_MOTION_DOT": 3.259e-05, "MEAN_MOTION_DDOT": 0}, "tle": {"line1": "1 35614U 93036ANH 25352.58785577  .00003259  00000+0  56217-3 0  9991", "line2": "2 35614  73.9588 316.1215 0075334 169.1076 191.1747 14.67062492878152"}}, "geometry": {"type": "Point", "coordinates": [118.98222894306228, 41.926306513263114]}}, {"type": "Feature", "properties": {"norad_id": 35645, "name": "COSMOS 2251 DEB", "group": "cosmos-2251-debris", "lat": 37.921777548987556, "lon": 87.63447559751148, "alt_km": 785.263788406105, "timestamp": "2025-12-19T16:54:44.659703+00:00", "meta": {"OBJECT_NAME": "COSMOS 2251 DEB", "OBJECT_ID": "1993-036ANL", "EPOCH": "2025-12-19T05:06:05.050944", "MEAN_MOTION": 14.45671221, "ECCENTRICITY": 0.00697563, "INCLINATION": 73.9648, "RA_OF_ASC_NODE": 75.608, "ARG_OF_PERICENTER": 232.618, "MEAN_ANOMALY": 126.8613, "EPHEMERIS_TYPE": 0, "CLASSIFICATION_TYPE": "U", "NORAD_CAT_ID": 35645, "ELEMENT_SET_NO": 999, "REV_AT_EPOCH": 86865, "BSTAR": 0.0013989338, "MEAN_MOTION_DOT": 5.075e-05, "MEAN_MOTION_DDOT": 0}, "tle": {"line1": "1 35645U 93036ANL 25353.21255846  .00005075  00000+0  13989-2 0  9993", "line2": "2 35645  73.9648  75.6080 0069756 232.6180 126.8613 14.45671221868656"}}, "geometry": {"type": "Point", "coordinates": [87.63447559751148, 37.921777548987556]}}, {"type": "Feature", "properties": {"norad_id": 35646, "name": "COSMOS 2251 DEB", "group": "cosmos-2251-debris", "lat": -40.12449800527654, "lon": -120.90771693364042, "alt_km": 971.4064515331456, "timestamp": "2025-12-19T16:54:44.659715+00:00", "meta": {"OBJECT_NAME": "COSMOS 2251 DEB", "OBJECT_ID": "1993-036ANM", "EPOCH": "2025-12-18T13:20:49.282080", "MEAN_MOTION": 13.40829033, "ECCENTRICITY": 0.04564144, "INCLINATION": 73.8718, "RA_OF_ASC_NODE": 46.7997, "ARG_OF_PERICENTER": 156.0103, "MEAN_ANOMALY": 279.1958, "EPHEMERIS_TYPE": 0, "CLASSIFICATION_TYPE": "U", "NORAD_CAT_ID": 35646, "ELEMENT_SET_NO": 999, "REV_AT_EPOCH": 81936, "BSTAR": 0.00040845832, "MEAN_MOTION_DOT": 3.96e-06, "MEAN_MOTION_DDOT": 0}, "tle": {"line1": "1 35646U 93036ANM 25352.55612595  .00000396  00000+0  40846-3 0  9992", "line2": "2 35646  73.8718  46.7997 0456414 156.0103 279.1958 13.40829033819363"}}, "geometry": {"type": "Point", "coordinates": [-120.90771693364042, -40.12449800527654]}}, {"type": "Feature", "properties": {"norad_id": 35647, "name": "COSMOS 2251 DEB", "group": "cosmos-2251-debris", "lat": 57.58797170755161, "lon": -51.567169129827604, "alt_km": 716.3824920697543, "timestamp": "2025-12-19T16:54:44.659726+00:00", "meta": {"OBJECT_NAME": "COSMOS 2251 DEB", "OBJECT_ID": "1993-036ANN", "EPOCH": "2025-12-16T12:07:42.204576", "MEAN_MOTION": 14.43653976, "ECCENTRICITY": 0.00457493, "INCLINATION": 74.0235, "RA_OF_ASC_NODE": 287.5596, "ARG_OF_PERICENTER": 25.7805, "MEAN_ANOMALY": 334.5617, "EPHEMERIS_TYPE": 0, "CLASSIFICATION_TYPE": "U", "NORAD_CAT_ID": 35647, "ELEMENT_SET_NO": 999, "REV_AT_EPOCH": 67718, "BSTAR": 0.00059115508, "MEAN_MOTION_DOT": 2.005e-05, "MEAN_MOTION_DDOT": 0}, "tle": {"line1": "1 35647U 93036ANN 25350.50534959  .00002005  00000+0  59116-3 0  9992", "line2": "2 35647  74.0235 287.5596 0045749  25.7805 334.5617 14.43653976677182"}}, "geometry": {"type": "Point", "coordinates": [-51.567169129827604, 57.58797170755161]}}, {"type": "Feature", "properties": {"norad_id": 35650, "name": "COSMOS 2251 DEB", "group": "cosmos-2251-debris", "lat": 22.270324000622978, "lon": 178.3582970607296, "alt_km": 619.8341484892298, "timestamp": "2025-12-19T16:54:44.659737+00:00", "meta": {"OBJECT_NAME": "COSMOS 2251 DEB", "OBJECT_ID": "1993-036ANR", "EPOCH": "2025-12-18T11:45:31.313664", "MEAN_MOTION": 14.83768636, "ECCENTRICITY": 0.00148473, "INCLINATION": 74.0452, "RA_OF_ASC_NODE": 7.491, "ARG_OF_PERICENTER": 52.0296, "MEAN_ANOMALY": 98.5494, "EPHEMERIS_TYPE": 0, "CLASSIFICATION_TYPE": "U", "NORAD_CAT_ID": 35650, "ELEMENT_SET_NO": 999, "REV_AT_EPOCH": 87719, "BSTAR": 0.0014528833, "MEAN_MOTION_DOT": 0.0001204, "MEAN_MOTION_DDOT": 0}, "tle": {"line1": "1 35650U 93036ANR 25352.48994576  .00012040  00000+0  14529-2 0  9998", "line2": "2 35650  74.0452   7.4910 0014847  52.0296  98.5494 14.83768636877195"}}, "geometry": {"type": "Point", "coordinates": [178.3582970607296, 22.270324000622978]}}, {"type": "Feature", "properties": {"norad_id": 35660, "name": "COSMOS 2251 DEB", "group": "cosmos-2251-debris", "lat": -31.106611636958498, "lon": 110.2109920327026, "alt_km": 725.0134825047835, "timestamp": "2025-12-19T16:54:44.659747+00:00", "meta": {"OBJECT_NAME": "COSMOS 2251 DEB", "OBJECT_ID": "1993-036APB", "EPOCH": "2025-12-15T02:38:46.156416", "MEAN_MOTION": 14.49937403, "ECCENTRICITY": 0.00182984, "INCLINATION": 74.0379, "RA_OF_ASC_NODE": 128.7781, "ARG_OF_PERICENTER": 277.071, "MEAN_ANOMALY": 198.1224, "EPHEMERIS_TYPE": 0, "CLASSIFICATION_TYPE": "U", "NORAD_CAT_ID": 35660, "ELEMENT_SET_NO": 999, "REV_AT_EPOCH": 65905, "BSTAR": 0.00040464315, "MEAN_MOTION_DOT": 1.541e-05, "MEAN_MOTION_DDOT": 0}, "tle": {"line1": "1 35660U 93036APB 25349.11025644  .00001541  00000+0  40464-3 0  9998", "line2": "2 35660  74.0379 128.7781 0018298 277.0710 198.1224 14.49937403659054"}}, "geometry": {"type": "Point", "coordinates": [110.2109920327026, -31.106611636958498]}}]}